GLOBALSTAR M057 [-]     
1 25943U 99058A   24049.93480459 -.00000048  00000+0  40650-3 0  9995
2 25943  51.9974 282.4553 0003402  85.4814 274.6424 12.24779867107592
GLOBALSTAR M059 [-]     
1 25944U 99058B   24049.82420105 -.00000009  00000+0  95526-3 0  9995
2 25944  52.0016  77.5046 0000701 123.8074  47.5972 11.99963505515892
GLOBALSTAR M056 [-]     
1 25945U 99058C   24049.84977113 -.00000105  00000+0 -20946-3 0  9996
2 25945  51.9961  91.8362 0000648 274.0355 257.6270 12.04773483104240
GLOBALSTAR M031 [-]     
1 25946U 99058D   24049.94847213 -.00000035  00000+0  56433-3 0  9996
2 25946  51.9992  12.8678 0001200 283.6935 177.2757 12.16003575105635
GLOBALSTAR M039 [-]     
1 25961U 99062A   24049.89082594 -.00000048  00000+0  31109-3 0  9992
2 25961  51.9855 303.7366 0003082   8.4519 351.6399 12.62282435119053
GLOBALSTAR M034 [-]     
1 25962U 99062B   24049.68385181 -.00000103  00000+0 -34788-3 0  9997
2 25962  51.9854 190.7885 0014035 202.4545 170.6539 11.79424335 81224
GLOBALSTAR M029 [-]     
1 25963U 99062C   24049.94562851 -.00000067  00000+0  23638-3 0  9998
2 25963  51.9832 325.6309 0001991 249.5314 190.6630 11.99873808110990
GLOBALSTAR M061 [-]     
1 25964U 99062D   24049.64558769 -.00000068  00000+0  19309-3 0  9990
2 25964  51.9826   8.5025 0006078 131.8435  38.9210 11.76758727 64425
